[{"OBJECT_NAME":"STARLINK-32428","OBJECT_ID":"2024-193F","EPOCH":"2026-03-09T11:02:31.536672","MEAN_MOTION":15.30192998,"ECCENTRICITY":0.00012854,"INCLINATION":53.1596,"RA_OF_ASC_NODE":91.917,"ARG_OF_PERICENTER":77.468,"MEAN_ANOMALY":282.6465,"EPHEMERIS_TYPE":0,"CLASSIFICATION_TYPE":"U","NORAD_CAT_ID":61666,"ELEMENT_SET_NO":999,"REV_AT_EPOCH":7649,"BSTAR":6.8204523e-5,"MEAN_MOTION_DOT":1.661e-5,"MEAN_MOTION_DDOT":0},{"OBJECT_NAME":"CERISE","OBJECT_ID":"1995-033B","EPOCH":"2026-03-09T23:11:27.589056","MEAN_MOTION":15.32047731,"ECCENTRICITY":0.00057118,"INCLINATION":98.325,"RA_OF_ASC_NODE":273.5192,"ARG_OF_PERICENTER":211.8754,"MEAN_ANOMALY":148.214,"EPHEMERIS_TYPE":0,"CLASSIFICATION_TYPE":"U","NORAD_CAT_ID":23606,"ELEMENT_SET_NO":999,"REV_AT_EPOCH":66468,"BSTAR":0.00062940675,"MEAN_MOTION_DOT":0.00019422,"MEAN_MOTION_DDOT":0}]
